[{"OBJECT_NAME":"STARLINK-33761","OBJECT_ID":"2025-069Y","EPOCH":"2026-01-11T12:24:57.916800","MEAN_MOTION":15.30215642,"ECCENTRICITY":0.0001158,"INCLINATION":53.159,"RA_OF_ASC_NODE":47.8619,"ARG_OF_PERICENTER":85.0821,"MEAN_ANOMALY":275.0312,"EPHEMERIS_TYPE":0,"CLASSIFICATION_TYPE":"U","NORAD_CAT_ID":63455,"ELEMENT_SET_NO":999,"REV_AT_EPOCH":4465,"BSTAR":0.00063654261,"MEAN_MOTION_DOT":0.0001855,"MEAN_MOTION_DDOT":0},{"OBJECT_NAME":"STARLINK-33737","OBJECT_ID":"2025-069Z","EPOCH":"2026-01-11T09:25:58.550592","MEAN_MOTION":15.30220651,"ECCENTRICITY":0.00012993,"INCLINATION":53.1596,"RA_OF_ASC_NODE":48.5,"ARG_OF_PERICENTER":84.1413,"MEAN_ANOMALY":275.9736,"EPHEMERIS_TYPE":0,"CLASSIFICATION_TYPE":"U","NORAD_CAT_ID":63456,"ELEMENT_SET_NO":999,"REV_AT_EPOCH":4452,"BSTAR":0.00062964243,"MEAN_MOTION_DOT":0.00018347,"MEAN_MOTION_DDOT":0},{"OBJECT_NAME":"STARLINK-33795","OBJECT_ID":"2025-069AA","EPOCH":"2026-01-11T10:05:29.596416","MEAN_MOTION":15.30215592,"ECCENTRICITY":0.00014145,"INCLINATION":53.1613,"RA_OF_ASC_NODE":48.6834,"ARG_OF_PERICENTER":78.418,"MEAN_ANOMALY":281.6979,"EPHEMERIS_TYPE":0,"CLASSIFICATION_TYPE":"U","NORAD_CAT_ID":63457,"ELEMENT_SET_NO":999,"REV_AT_EPOCH":4452,"BSTAR":0.00070146576,"MEAN_MOTION_DOT":0.00020483,"MEAN_MOTION_DDOT":0},{"OBJECT_NAME":"STARLINK-33756","OBJECT_ID":"2025-069AB","EPOCH":"2026-01-11T11:44:05.886528","MEAN_MOTION":15.30225365,"ECCENTRICITY":0.00012274,"INCLINATION":53.161,"RA_OF_ASC_NODE":48.39,"ARG_OF_PERICENTER":91.0585,"MEAN_ANOMALY":269.0556,"EPHEMERIS_TYPE":0,"CLASSIFICATION_TYPE":"U","NORAD_CAT_ID":63458,"ELEMENT_SET_NO":999,"REV_AT_EPOCH":4464,"BSTAR":0.00094781422,"MEAN_MOTION_DOT":0.0002784,"MEAN_MOTION_DDOT":0},{"OBJECT_NAME":"STARLINK-33780","OBJECT_ID":"2025-069AC","EPOCH":"2026-01-11T12:29:31.413408","MEAN_MOTION":15.30221505,"ECCENTRICITY":0.00012286,"INCLINATION":53.1593,"RA_OF_ASC_NODE":47.8759,"ARG_OF_PERICENTER":84.9424,"MEAN_ANOMALY":275.1717,"EPHEMERIS_TYPE":0,"CLASSIFICATION_TYPE":"U","NORAD_CAT_ID":63459,"ELEMENT_SET_NO":999,"REV_AT_EPOCH":4454,"BSTAR":0.00082513485,"MEAN_MOTION_DOT":0.00024175,"MEAN_MOTION_DDOT":0},{"OBJECT_NAME":"STARLINK-33679","OBJECT_ID":"2025-070A","EPOCH":"2026-01-11T06:48:01.912608","MEAN_MOTION":15.27589228,"ECCENTRICITY":0.00010406,"INCLINATION":43.0018,"RA_OF_ASC_NODE":224.3126,"ARG_OF_PERICENTER":274.6042,"MEAN_ANOMALY":85.4691,"EPHEMERIS_TYPE":0,"CLASSIFICATION_TYPE":"U","NORAD_CAT_ID":63460,"ELEMENT_SET_NO":999,"REV_AT_EPOCH":4419,"BSTAR":0.0010320158,"MEAN_MOTION_DOT":0.00028253,"MEAN_MOTION_DDOT":0},{"OBJECT_NAME":"STARLINK-33706","OBJECT_ID":"2025-070B","EPOCH":"2026-01-11T14:44:21.116256","MEAN_MOTION":15.27608454,"ECCENTRICITY":0.00011592,"INCLINATION":42.9978,"RA_OF_ASC_NODE":222.4644,"ARG_OF_PERICENTER":264.0651,"MEAN_ANOMALY":96.0068,"EPHEMERIS_TYPE":0,"CLASSIFICATION_TYPE":"U","NORAD_CAT_ID":63461,"ELEMENT_SET_NO":999,"REV_AT_EPOCH":4424,"BSTAR":0.0012826724,"MEAN_MOTION_DOT":0.00035234,"MEAN_MOTION_DDOT":0},{"OBJECT_NAME":"STARLINK-33691","OBJECT_ID":"2025-070C","EPOCH":"2026-01-11T15:04:29.631936","MEAN_MOTION":15.27609907,"ECCENTRICITY":6.041e-5,"INCLINATION":43.0017,"RA_OF_ASC_NODE":221.7037,"ARG_OF_PERICENTER":267.7389,"MEAN_ANOMALY":92.3394,"EPHEMERIS_TYPE":0,"CLASSIFICATION_TYPE":"U","NORAD_CAT_ID":63462,"ELEMENT_SET_NO":999,"REV_AT_EPOCH":4420,"BSTAR":0.00096696177,"MEAN_MOTION_DOT":0.00026466,"MEAN_MOTION_DDOT":0},{"OBJECT_NAME":"STARLINK-33696","OBJECT_ID":"2025-070D","EPOCH":"2026-01-11T14:07:20.698464","MEAN_MOTION":15.27600111,"ECCENTRICITY":0.00013466,"INCLINATION":42.998,"RA_OF_ASC_NODE":222.2709,"ARG_OF_PERICENTER":259.6165,"MEAN_ANOMALY":100.4535,"EPHEMERIS_TYPE":0,"CLASSIFICATION_TYPE":"U","NORAD_CAT_ID":63463,"ELEMENT_SET_NO":999,"REV_AT_EPOCH":4424,"BSTAR":0.00091931454,"MEAN_MOTION_DOT":0.00025137,"MEAN_MOTION_DDOT":0},{"OBJECT_NAME":"STARLINK-33701","OBJECT_ID":"2025-070E","EPOCH":"2026-01-11T14:49:54.189984","MEAN_MOTION":15.27609513,"ECCENTRICITY":8.262e-5,"INCLINATION":42.9979,"RA_OF_ASC_NODE":222.4912,"ARG_OF_PERICENTER":245.9338,"MEAN_ANOMALY":114.1427,"EPHEMERIS_TYPE":0,"CLASSIFICATION_TYPE":"U","NORAD_CAT_ID":63464,"ELEMENT_SET_NO":999,"REV_AT_EPOCH":4424,"BSTAR":0.0013716706,"MEAN_MOTION_DOT":0.0003771,"MEAN_MOTION_DDOT":0},{"OBJECT_NAME":"STARLINK-33685","OBJECT_ID":"2025-070F","EPOCH":"2026-01-11T06:33:12.844512","MEAN_MOTION":15.27599896,"ECCENTRICITY":0.00020465,"INCLINATION":42.9973,"RA_OF_ASC_NODE":224.2004,"ARG_OF_PERICENTER":271.0113,"MEAN_ANOMALY":89.0504,"EPHEMERIS_TYPE":0,"CLASSIFICATION_TYPE":"U","NORAD_CAT_ID":63465,"ELEMENT_SET_NO":999,"REV_AT_EPOCH":4419,"BSTAR":0.00095936964,"MEAN_MOTION_DOT":0.00026248,"MEAN_MOTION_DDOT":0},{"OBJECT_NAME":"STARLINK-33654","OBJECT_ID":"2025-070G","EPOCH":"2026-01-11T14:09:11.547936","MEAN_MOTION":15.27597671,"ECCENTRICITY":0.00011551,"INCLINATION":42.9981,"RA_OF_ASC_NODE":222.2764,"ARG_OF_PERICENTER":261.7021,"MEAN_ANOMALY":98.3699,"EPHEMERIS_TYPE":0,"CLASSIFICATION_TYPE":"U","NORAD_CAT_ID":63466,"ELEMENT_SET_NO":999,"REV_AT_EPOCH":4424,"BSTAR":0.00086308202,"MEAN_MOTION_DOT":0.00023577,"MEAN_MOTION_DDOT":0},{"OBJECT_NAME":"STARLINK-33697","OBJECT_ID":"2025-070H","EPOCH":"2026-01-11T14:12:54.529920","MEAN_MOTION":15.27596304,"ECCENTRICITY":0.00028709,"INCLINATION":42.9987,"RA_OF_ASC_NODE":222.3105,"ARG_OF_PERICENTER":281.3938,"MEAN_ANOMALY":78.6592,"EPHEMERIS_TYPE":0,"CLASSIFICATION_TYPE":"U","NORAD_CAT_ID":63467,"ELEMENT_SET_NO":999,"REV_AT_EPOCH":4424,"BSTAR":0.0013104547,"MEAN_MOTION_DOT":0.00035995,"MEAN_MOTION_DDOT":0},{"OBJECT_NAME":"STARLINK-33720","OBJECT_ID":"2025-070J","EPOCH":"2026-01-11T14:14:44.655360","MEAN_MOTION":15.27599515,"ECCENTRICITY":0.00015341,"INCLINATION":42.9972,"RA_OF_ASC_NODE":222.3041,"ARG_OF_PERICENTER":264.7137,"MEAN_ANOMALY":95.3539,"EPHEMERIS_TYPE":0,"CLASSIFICATION_TYPE":"U","NORAD_CAT_ID":63468,"ELEMENT_SET_NO":999,"REV_AT_EPOCH":4424,"BSTAR":0.00087974944,"MEAN_MOTION_DOT":0.0002404,"MEAN_MOTION_DDOT":0},{"OBJECT_NAME":"STARLINK-33587","OBJECT_ID":"2025-070K","EPOCH":"2026-01-11T15:26:41.736768","MEAN_MOTION":15.27596506,"ECCENTRICITY":0.00017505,"INCLINATION":42.9995,"RA_OF_ASC_NODE":221.8238,"ARG_OF_PERICENTER":263.4643,"MEAN_ANOMALY":96.601,"EPHEMERIS_TYPE":0,"CLASSIFICATION_TYPE":"U","NORAD_CAT_ID":63469,"ELEMENT_SET_NO":999,"REV_AT_EPOCH":4425,"BSTAR":0.00074993201,"MEAN_MOTION_DOT":0.00020442,"MEAN_MOTION_DDOT":0},{"OBJECT_NAME":"STARLINK-33637","OBJECT_ID":"2025-070L","EPOCH":"2026-01-11T14:55:27.032160","MEAN_MOTION":15.276133,"ECCENTRICITY":2.244e-5,"INCLINATION":42.9956,"RA_OF_ASC_NODE":222.5191,"ARG_OF_PERICENTER":282.0429,"MEAN_ANOMALY":78.0398,"EPHEMERIS_TYPE":0,"CLASSIFICATION_TYPE":"U","NORAD_CAT_ID":63470,"ELEMENT_SET_NO":999,"REV_AT_EPOCH":4424,"BSTAR":0.0010701019,"MEAN_MOTION_DOT":0.00029332,"MEAN_MOTION_DDOT":0},{"OBJECT_NAME":"STARLINK-33744","OBJECT_ID":"2025-070M","EPOCH":"2026-01-11T06:42:27.782208","MEAN_MOTION":15.27604584,"ECCENTRICITY":0.00018499,"INCLINATION":42.9965,"RA_OF_ASC_NODE":224.2452,"ARG_OF_PERICENTER":268.7247,"MEAN_ANOMALY":91.3393,"EPHEMERIS_TYPE":0,"CLASSIFICATION_TYPE":"U","NORAD_CAT_ID":63471,"ELEMENT_SET_NO":999,"REV_AT_EPOCH":4419,"BSTAR":0.0012617848,"MEAN_MOTION_DOT":0.00034649,"MEAN_MOTION_DDOT":0},{"OBJECT_NAME":"STARLINK-33766","OBJECT_ID":"2025-070N","EPOCH":"2026-01-11T06:55:25.337280","MEAN_MOTION":15.27593701,"ECCENTRICITY":8.656e-5,"INCLINATION":42.9996,"RA_OF_ASC_NODE":224.3177,"ARG_OF_PERICENTER":281.3417,"MEAN_ANOMALY":78.7337,"EPHEMERIS_TYPE":0,"CLASSIFICATION_TYPE":"U","NORAD_CAT_ID":63472,"ELEMENT_SET_NO":999,"REV_AT_EPOCH":4419,"BSTAR":0.0012510391,"MEAN_MOTION_DOT":0.00034338,"MEAN_MOTION_DDOT":0},{"OBJECT_NAME":"STARLINK-33765","OBJECT_ID":"2025-070P","EPOCH":"2026-01-11T14:20:17.806848","MEAN_MOTION":15.27598879,"ECCENTRICITY":0.00010906,"INCLINATION":42.9976,"RA_OF_ASC_NODE":222.3322,"ARG_OF_PERICENTER":270.0271,"MEAN_ANOMALY":90.0455,"EPHEMERIS_TYPE":0,"CLASSIFICATION_TYPE":"U","NORAD_CAT_ID":63473,"ELEMENT_SET_NO":999,"REV_AT_EPOCH":4424,"BSTAR":0.00077062874,"MEAN_MOTION_DOT":0.00021017,"MEAN_MOTION_DDOT":0},{"OBJECT_NAME":"STARLINK-33735","OBJECT_ID":"2025-070Q","EPOCH":"2026-01-11T15:28:32.556000","MEAN_MOTION":15.27606169,"ECCENTRICITY":0.00015268,"INCLINATION":42.9991,"RA_OF_ASC_NODE":221.8277,"ARG_OF_PERICENTER":261.0725,"MEAN_ANOMALY":98.9954,"EPHEMERIS_TYPE":0,"CLASSIFICATION_TYPE":"U","NORAD_CAT_ID":63474,"ELEMENT_SET_NO":999,"REV_AT_EPOCH":4425,"BSTAR":0.00072187039,"MEAN_MOTION_DOT":0.00019671,"MEAN_MOTION_DDOT":0},{"OBJECT_NAME":"STARLINK-33731","OBJECT_ID":"2025-070R","EPOCH":"2026-01-11T14:51:44.895168","MEAN_MOTION":15.27599178,"ECCENTRICITY":0.00014183,"INCLINATION":42.9999,"RA_OF_ASC_NODE":222.5004,"ARG_OF_PERICENTER":271.8288,"MEAN_ANOMALY":88.2401,"EPHEMERIS_TYPE":0,"CLASSIFICATION_TYPE":"U","NORAD_CAT_ID":63475,"ELEMENT_SET_NO":999,"REV_AT_EPOCH":4424,"BSTAR":0.00066327666,"MEAN_MOTION_DOT":0.00018045,"MEAN_MOTION_DDOT":0},{"OBJECT_NAME":"STARLINK-33718","OBJECT_ID":"2025-070S","EPOCH":"2026-01-11T07:19:16.449600","MEAN_MOTION":15.27593107,"ECCENTRICITY":2.234e-5,"INCLINATION":42.9981,"RA_OF_ASC_NODE":223.5771,"ARG_OF_PERICENTER":44.4778,"MEAN_ANOMALY":315.6091,"EPHEMERIS_TYPE":0,"CLASSIFICATION_TYPE":"U","NORAD_CAT_ID":63476,"ELEMENT_SET_NO":999,"REV_AT_EPOCH":4420,"BSTAR":0.0015038811,"MEAN_MOTION_DOT":0.0004137,"MEAN_MOTION_DDOT":0},{"OBJECT_NAME":"STARLINK-33630","OBJECT_ID":"2025-070T","EPOCH":"2026-01-11T13:56:56.118048","MEAN_MOTION":15.27604647,"ECCENTRICITY":0.00011224,"INCLINATION":42.9977,"RA_OF_ASC_NODE":218.7304,"ARG_OF_PERICENTER":271.2446,"MEAN_ANOMALY":88.8277,"EPHEMERIS_TYPE":0,"CLASSIFICATION_TYPE":"U","NORAD_CAT_ID":63477,"ELEMENT_SET_NO":999,"REV_AT_EPOCH":4428,"BSTAR":0.0013236965,"MEAN_MOTION_DOT":0.0003637,"MEAN_MOTION_DDOT":0}]
